0 SCOUT G-1 DEB
1 35401U 93041E   13281.31458083  .00001838  00000-0  45237-3 0  2488
2 35401 089.5129 290.6392 0061965 037.7951 322.7551 14.50749072552230
0 SCOUT G-1 DEB
1 35401U 93041E   13283.31483800  .00001853  00000-0  45577-3 0  2490
2 35401 089.5172 290.5379 0062634 031.9361 328.5650 14.50756867552523
0 SCOUT G-1 DEB
1 35401U 93041E   13283.79764778  .00002236  00000-0  55503-3 0  2494
2 35401 089.5189 290.5151 0061920 034.0187 326.5453 14.50765858849164
0 SCOUT G-1 DEB
1 35401U 93041E   13283.79765646  .00001885  00000-0  46373-3 0  2505
2 35401 089.5200 290.5152 0062427 032.4947 328.0303 14.50759583552595
0 SCOUT G-1 DEB
1 35401U 93041E   13286.76351005  .00001954  00000-0  48067-3 0  2526
2 35401 089.5258 290.3589 0062828 026.8304 333.6176 14.50773407553029
0 SCOUT G-1 DEB
1 35401U 93041E   13288.76372912  .00002045  00000-0  50286-3 0  2537
2 35401 089.5209 290.2320 0063526 017.5856 342.7813 14.50783621553312
0 SCOUT G-1 DEB
1 35401U 93041E   13289.72934241  .00002090  00000-0  51419-3 0  2543
2 35401 089.5146 290.1532 0063004 014.2616 346.0872 14.50789241553456
0 SCOUT G-1 DEB
1 35401U 93041E   13290.76385963  .00004757  00000-0  11803-2 0  2566
2 35401 089.5168 290.1096 0060820 010.4793 349.8152 14.50820200553602
0 SCOUT G-1 DEB
1 35401U 93041E   13290.76391970  .00002319  00000-0  57183-3 0  2576
2 35401 089.5169 290.0977 0060456 010.2420 350.2449 14.50801920553603
0 SCOUT G-1 DEB
1 35401U 93041E   13291.72947935  .00002394  00000-0  59103-3 0  2589
2 35401 089.5203 290.0481 0059104 008.2242 352.0624 14.50808979553740
0 SCOUT G-1 DEB
1 35401U 93041E   13292.76403831  .00002460  00000-0  60758-3 0  2599
2 35401 089.5195 289.9880 0058644 003.6876 356.5266 14.50816073553891
0 SCOUT G-1 DEB
1 35401U 93041E   13294.28139402  .00002614  00000-0  64698-3 0  2608
2 35401 089.5207 289.8909 0055898 355.7268 004.5630 14.50829906554110
0 SCOUT G-1 DEB
1 35401U 93041E   13295.24694058  .00002736  00000-0  67639-3 0  2612
2 35401 089.5154 289.8287 0057701 349.9022 010.1772 14.50838534554250
